{
  "type": "FeatureCollection",
  "features": [
    {
      "type": "Feature",
      "properties": {
        "norad_id": 66638,
        "name": "STARLINK-35972",
        "group": "last-30-days",
        "lat": 25.07725098715134,
        "lon": -29.75671448155126,
        "alt_km": 415.64647140799843,
        "timestamp": "2025-12-16T03:53:25.816401+00:00",
        "meta_object_name": "STARLINK-35972",
        "meta_object_id": "2025-271X",
        "meta_epoch": "2025-12-15T08:00:01.999872",
        "meta_mean_motion": 15.4926536,
        "meta_eccentricity": 6.368e-05,
        "meta_inclination": 53.1591,
        "meta_ra_of_asc_node": 174.7461,
        "meta_arg_of_pericenter": 61.2871,
        "meta_mean_anomaly": 141.6131,
        "meta_ephemeris_type": 0,
        "meta_classification_type": "U",
        "meta_norad_cat_id": 66638,
        "meta_element_set_no": 999,
        "meta_rev_at_epoch": 466,
        "meta_bstar": 0.0012547288,
        "meta_mean_motion_dot": 0.00069853,
        "meta_mean_motion_ddot": 0,
        "tle_line1": "1 66638U 25271X   25349.33335648  .00069853  00000+0  12547-2 0  9995",
        "tle_line2": "2 66638  53.1591 174.7461 0000636  61.2871 141.6131 15.49265360  4669"
      },
      "geometry": {
        "type": "Point",
        "coordinates": [
          -29.75671448155126,
          25.07725098715134
        ]
      }
    },
    {
      "type": "Feature",
      "properties": {
        "norad_id": 66639,
        "name": "STARLINK-35908",
        "group": "last-30-days",
        "lat": 23.633354531547884,
        "lon": -28.374300432008358,
        "alt_km": 415.68324633997236,
        "timestamp": "2025-12-16T03:53:25.816411+00:00",
        "meta_object_name": "STARLINK-35908",
        "meta_object_id": "2025-271Y",
        "meta_epoch": "2025-12-15T08:00:01.999872",
        "meta_mean_motion": 15.49263855,
        "meta_eccentricity": 8.658e-05,
        "meta_inclination": 53.1591,
        "meta_ra_of_asc_node": 174.7416,
        "meta_arg_of_pericenter": 82.594,
        "meta_mean_anomaly": 122.2285,
        "meta_ephemeris_type": 0,
        "meta_classification_type": "U",
        "meta_norad_cat_id": 66639,
        "meta_element_set_no": 999,
        "meta_rev_at_epoch": 466,
        "meta_bstar": 0.0012344075,
        "meta_mean_motion_dot": 0.00068701,
        "meta_mean_motion_ddot": 0,
        "tle_line1": "1 66639U 25271Y   25349.33335648  .00068701  00000+0  12344-2 0  9992",
        "tle_line2": "2 66639  53.1591 174.7416 0000865  82.5940 122.2285 15.49263855  4669"
      },
      "geometry": {
        "type": "Point",
        "coordinates": [
          -28.374300432008358,
          23.633354531547884
        ]
      }
    },
    {
      "type": "Feature",
      "properties": {
        "norad_id": 66640,
        "name": "STARLINK-35921",
        "group": "last-30-days",
        "lat": 22.174085934265076,
        "lon": -27.018480225887902,
        "alt_km": 415.87621316629065,
        "timestamp": "2025-12-16T03:53:25.816421+00:00",
        "meta_object_name": "STARLINK-35921",
        "meta_object_id": "2025-271Z",
        "meta_epoch": "2025-12-15T08:00:01.999872",
        "meta_mean_motion": 15.49266154,
        "meta_eccentricity": 0.00011014,
        "meta_inclination": 53.1592,
        "meta_ra_of_asc_node": 174.7378,
        "meta_arg_of_pericenter": 81.4434,
        "meta_mean_anomaly": 125.2903,
        "meta_ephemeris_type": 0,
        "meta_classification_type": "U",
        "meta_norad_cat_id": 66640,
        "meta_element_set_no": 999,
        "meta_rev_at_epoch": 466,
        "meta_bstar": 0.0012375892,
        "meta_mean_motion_dot": 0.00068886,
        "meta_mean_motion_ddot": 0,
        "tle_line1": "1 66640U 25271Z   25349.33335648  .00068886  00000+0  12376-2 0  9993",
        "tle_line2": "2 66640  53.1592 174.7378 0001101  81.4434 125.2903 15.49266154  4664"
      },
      "geometry": {
        "type": "Point",
        "coordinates": [
          -27.018480225887902,
          22.174085934265076
        ]
      }
    },
    {
      "type": "Feature",
      "properties": {
        "norad_id": 66641,
        "name": "STARLINK-35923",
        "group": "last-30-days",
        "lat": 16.256601520055483,
        "lon": -21.871399739708142,
        "alt_km": 416.5175841523469,
        "timestamp": "2025-12-16T03:53:25.816432+00:00",
        "meta_object_name": "STARLINK-35923",
        "meta_object_id": "2025-271AA",
        "meta_epoch": "2025-12-15T08:00:01.999872",
        "meta_mean_motion": 15.49271878,
        "meta_eccentricity": 0.00011784,
        "meta_inclination": 53.1591,
        "meta_ra_of_asc_node": 174.7208,
        "meta_arg_of_pericenter": 110.7648,
        "meta_mean_anomaly": 103.6118,
        "meta_ephemeris_type": 0,
        "meta_classification_type": "U",
        "meta_norad_cat_id": 66641,
        "meta_element_set_no": 999,
        "meta_rev_at_epoch": 466,
        "meta_bstar": 0.0012482611,
        "meta_mean_motion_dot": 0.00069504,
        "meta_mean_motion_ddot": 0,
        "tle_line1": "1 66641U 25271AA  25349.33335648  .00069504  00000+0  12483-2 0  9991",
        "tle_line2": "2 66641  53.1591 174.7208 0001178 110.7648 103.6118 15.49271878  4660"
      },
      "geometry": {
        "type": "Point",
        "coordinates": [
          -21.871399739708142,
          16.256601520055483
        ]
      }
    },
    {
      "type": "Feature",
      "properties": {
        "norad_id": 66642,
        "name": "STARLINK-35926",
        "group": "last-30-days",
        "lat": 17.748810524312116,
        "lon": -23.123529405597374,
        "alt_km": 416.688685851791,
        "timestamp": "2025-12-16T03:53:25.816442+00:00",
        "meta_object_name": "STARLINK-35926",
        "meta_object_id": "2025-271AB",
        "meta_epoch": "2025-12-15T08:00:01.999872",
        "meta_mean_motion": 15.49268571,
        "meta_eccentricity": 6.048e-05,
        "meta_inclination": 53.159,
        "meta_ra_of_asc_node": 174.7257,
        "meta_arg_of_pericenter": 89.6538,
        "meta_mean_anomaly": 122.8243,
        "meta_ephemeris_type": 0,
        "meta_classification_type": "U",
        "meta_norad_cat_id": 66642,
        "meta_element_set_no": 999,
        "meta_rev_at_epoch": 442,
        "meta_bstar": 0.0012268191,
        "meta_mean_motion_dot": 0.00068283,
        "meta_mean_motion_ddot": 0,
        "tle_line1": "1 66642U 25271AB  25349.33335648  .00068283  00000+0  12268-2 0  9996",
        "tle_line2": "2 66642  53.1590 174.7257 0000604  89.6538 122.8243 15.49268571  4421"
      },
      "geometry": {
        "type": "Point",
        "coordinates": [
          -23.123529405597374,
          17.748810524312116
        ]
      }
    },
    {
      "type": "Feature",
      "properties": {
        "norad_id": 66643,
        "name": "STARLINK-35918",
        "group": "last-30-days",
        "lat": 20.704880251538988,
        "lon": -25.691844608439933,
        "alt_km": 416.12652119573795,
        "timestamp": "2025-12-16T03:53:25.816454+00:00",
        "meta_object_name": "STARLINK-35918",
        "meta_object_id": "2025-271AC",
        "meta_epoch": "2025-12-15T08:00:01.999872",
        "meta_mean_motion": 15.49270322,
        "meta_eccentricity": 0.00011263,
        "meta_inclination": 53.1591,
        "meta_ra_of_asc_node": 174.734,
        "meta_arg_of_pericenter": 81.3441,
        "meta_mean_anomaly": 127.301,
        "meta_ephemeris_type": 0,
        "meta_classification_type": "U",
        "meta_norad_cat_id": 66643,
        "meta_element_set_no": 999,
        "meta_rev_at_epoch": 466,
        "meta_bstar": 0.0012043938,
        "meta_mean_motion_dot": 0.0006702,
        "meta_mean_motion_ddot": 0,
        "tle_line1": "1 66643U 25271AC  25349.33335648  .00067020  00000+0  12044-2 0  9997",
        "tle_line2": "2 66643  53.1591 174.7340 0001126  81.3441 127.3010 15.49270322  4663"
      },
      "geometry": {
        "type": "Point",
        "coordinates": [
          -25.691844608439933,
          20.704880251538988
        ]
      }
    },
    {
      "type": "Feature",
      "properties": {
        "norad_id": 66644,
        "name": "STARLINK-35938",
        "group": "last-30-days",
        "lat": 19.222198763671972,
        "lon": -24.388224256288122,
        "alt_km": 416.37596690414284,
        "timestamp": "2025-12-16T03:53:25.816464+00:00",
        "meta_object_name": "STARLINK-35938",
        "meta_object_id": "2025-271AD",
        "meta_epoch": "2025-12-15T08:00:01.999872",
        "meta_mean_motion": 15.49278216,
        "meta_eccentricity": 5.253e-05,
        "meta_inclination": 53.1591,
        "meta_ra_of_asc_node": 174.7298,
        "meta_arg_of_pericenter": 95.9786,
        "meta_mean_anomaly": 114.556,
        "meta_ephemeris_type": 0,
        "meta_classification_type": "U",
        "meta_norad_cat_id": 66644,
        "meta_element_set_no": 999,
        "meta_rev_at_epoch": 466,
        "meta_bstar": 0.0013366469,
        "meta_mean_motion_dot": 0.00074522,
        "meta_mean_motion_ddot": 0,
        "tle_line1": "1 66644U 25271AD  25349.33335648  .00074522  00000+0  13366-2 0  9991",
        "tle_line2": "2 66644  53.1591 174.7298 0000525  95.9786 114.5560 15.49278216  4669"
      },
      "geometry": {
        "type": "Point",
        "coordinates": [
          -24.388224256288122,
          19.222198763671972
        ]
      }
    }
  ]
}